[{"OBJECT_NAME":"STARLINK-2151","OBJECT_ID":"2021-041D","EPOCH":"2026-03-10T00:00:02.999808","MEAN_MOTION":15.10939754,"ECCENTRICITY":0.00016039,"INCLINATION":53.0699,"RA_OF_ASC_NODE":140.1993,"ARG_OF_PERICENTER":79.4204,"MEAN_ANOMALY":104.2412,"EPHEMERIS_TYPE":0,"CLASSIFICATION_TYPE":"U","NORAD_CAT_ID":48556,"ELEMENT_SET_NO":999,"REV_AT_EPOCH":574,"BSTAR":0.006129409,"MEAN_MOTION_DOT":0.00104599,"MEAN_MOTION_DDOT":0},{"OBJECT_NAME":"LEMUR-2-NEUROSPICY","OBJECT_ID":"2025-061E","EPOCH":"2026-03-09T21:29:47.005152","MEAN_MOTION":15.13370729,"ECCENTRICITY":0.00155025,"INCLINATION":97.5545,"RA_OF_ASC_NODE":45.3302,"ARG_OF_PERICENTER":239.5457,"MEAN_ANOMALY":120.4243,"EPHEMERIS_TYPE":0,"CLASSIFICATION_TYPE":"U","NORAD_CAT_ID":63355,"ELEMENT_SET_NO":999,"REV_AT_EPOCH":5259,"BSTAR":0.00032487858,"MEAN_MOTION_DOT":5.745e-5,"MEAN_MOTION_DDOT":0}]
